[
    {
        "Altitude(m)": 611965.1857120184,
        "Argument of Periapsis(deg)": 0.0,
        "Eccentricity": 0.0,
        "Inclination(deg)": 60.0,
        "Latitude(deg)": 59.140162643578165,
        "Longitude(deg)": -146.03004047200443,
        "Mean Anomaly(deg)": 81.8182,
        "RAAN(deg)": 240.0,
        "Satellite Name": "Test1 1061",
        "Satellite Number": 1061,
        "Semi-Major Axis(m)": 6980739.136638005,
        "Time(s)": 0
    },
    {
        "Altitude(m)": 611995.8106634916,
        "Argument of Periapsis(deg)": 0.00010418945913296404,
        "Eccentricity": 0.0,
        "Inclination(deg)": 60.0,
        "Latitude(deg)": 59.28326094974246,
        "Longitude(deg)": -144.89667747838425,
        "Mean Anomaly(deg)": 82.43830614546181,
        "RAAN(deg)": 239.99957995086024,
        "Satellite Name": "Test1 1061",
        "Satellite Number": 1061,
        "Semi-Major Axis(m)": 6980739.136638005,
        "Time(s)": 10
    }
]